[{"OBJECT_NAME":"STARLINK-5605","OBJECT_ID":"2023-014W","EPOCH":"2026-03-09T23:25:49.964736","MEAN_MOTION":14.98331267,"ECCENTRICITY":0.00033621,"INCLINATION":69.9996,"RA_OF_ASC_NODE":63.9281,"ARG_OF_PERICENTER":265.8295,"MEAN_ANOMALY":94.248,"EPHEMERIS_TYPE":0,"CLASSIFICATION_TYPE":"U","NORAD_CAT_ID":55411,"ELEMENT_SET_NO":999,"REV_AT_EPOCH":17209,"BSTAR":0.0001445441,"MEAN_MOTION_DOT":1.632e-5,"MEAN_MOTION_DDOT":0},{"OBJECT_NAME":"CZ-2D DEB","OBJECT_ID":"2017-060D","EPOCH":"2026-03-09T09:20:51.218016","MEAN_MOTION":14.94784327,"ECCENTRICITY":0.00290231,"INCLINATION":98.2151,"RA_OF_ASC_NODE":220.4386,"ARG_OF_PERICENTER":85.7344,"MEAN_ANOMALY":274.7191,"EPHEMERIS_TYPE":0,"CLASSIFICATION_TYPE":"U","NORAD_CAT_ID":44611,"ELEMENT_SET_NO":999,"REV_AT_EPOCH":45223,"BSTAR":0.00060475076,"MEAN_MOTION_DOT":6.57e-5,"MEAN_MOTION_DDOT":0}]
